#dP2024  4 21  0  0  0.00000000      96 __u+U IGS20 FIT  IAC
## 2311      0.00000000   900.00000000 60421 0.0000000000000
+  128   C01C02C03C04C05C06C07C08C09C10C11C12C13C14C16C19C20
+        C21C22C23C24C25C26C27C28C29C30C32C33C34C35C36C37C38
+        C39C40C41C42C43C44C45C46C59C60E02E03E04E05E07E08E09
+        E10E11E12E13E14E15E19E21E24E25E26E27E30E31E33E34E36
+        G02G03G04G05G06G07G08G09G10G11G12G13G14G15G16G17G18
+        G19G20G21G22G23G24G25G26G27G28G29G30G31G32J02J03J04
+        J07R01R02R03R04R05R06R08R09R10R11R12R13R14R15R16R17
+        R18R19R20R21R22R23R24R25R26  0  0  0  0  0  0  0  0
++        18 17 17 17 16  9 10 10 10 10  9  9 10  9 10  7  7
++         7  7  7  7  7  7  7  8  7  7  8  8  7  8  7  7  9
++         9  9  8  8  8  7  7  7  0 17  4  4  5  4  4  4  6
++         4  5  4  4  5  4  4  5  4  4  4  4  4  5  4  5  5
++         4  4  4  4  4  4  4  4  4  4  4  4  4  4  4  4  4
++         4  4  4  4  4  4  4  4  4  4  4  4  4  4 11 11 12
++        18  7  6  6  6  7 15  6  6 15  6  6  8  6  6  6  6
++         6  8  8  6  6 15  6  9  8  0  0  0  0  0  0  0  0
%c M  cc GPS ccc cccc cccc cccc cccc ccccc ccccc ccccc ccccc
%c cc cc ccc ccc cccc cccc cccc cccc ccccc ccccc ccccc ccccc
%f  0.0000000  0.000000000  0.00000000000  0.000000000000000
%f  0.0000000  0.000000000  0.00000000000  0.000000000000000
%i    0    0    0    0      0      0      0      0         0
%i    0    0    0    0      0      0      0      0         0
/* INFORMATION & ANALYSIS CENTER (IAC)            RAPID DATA
/* S/V CLOCKS ARE ALIGNED TO GNSS TIME                      
/* G:C1WC2W R:C1PC2P E:C1XC5X C:C2IC6I J:C1CC2S             
/* PCV:IGS20_2290 OL/AL:FES2004  NONE     YN ORB:CoN CLK:CoN
*  2024 04 21  4 30  0.00000000
PC01 -34358.076947  24458.196890   -274.361287    892.905087
PC02   4399.758091  41855.899891  -1731.785292    620.870184
PC03 -14758.341711  39446.840192   -849.976512    183.744157
PC04 -39645.339928  14399.760253    196.291962   -144.641821
PC05  21822.071322  36004.005157  -1403.168333   -847.817167
PC06  -1539.456431  38091.181001 -17589.590351    362.392359
PC07 -11828.699187  26129.040050  30949.394100   -801.177582
PC08 -19882.278869  34746.666015 -13562.034237    -43.588585
PC09   1818.570081  40023.294048 -11586.776729   -791.730119
PC10  -1760.812849  27720.838765  32051.757744     80.231231
PC11 -18263.869142  -1259.612952  21122.033508    522.845577
PC12 -19738.350297 -18323.643339   7344.934178   -234.814103
PC13 -13267.596980  35068.538778 -19386.354721    432.171542
PC14 -27409.477200   4851.690960  -1370.221084    694.277325
PC16  -5191.027284  35158.121631 -22125.922032   -471.623238
PC19  23722.477311 -10443.461612  10414.447852   -913.922838
PC20  27231.254098    378.526087  -6173.296215   -382.099824
PC21 -14392.648634 -12073.559904  20641.981027   -963.610167
PC22   6421.685933 -15913.237502  22014.743138    -31.501731
PC23  -8376.438869  26462.236635   2905.758388   -776.100166
PC24 -16407.112359  -2617.638692 -22437.284097    936.813008
PC25 -17003.883998  17465.463505 -13614.228233    380.148196
PC26  -6398.783673 -20184.490249 -18178.003986   -280.229993
PC27  16222.854328  22656.204208   1359.949933    301.965716
PC28   3542.320317  22745.464035  15774.504100    231.012138
PC29  13698.044173  -8594.018155 -22751.984564    271.008926
PC30  21667.664102  10377.021548 -14190.915969    -60.234814
PC32  14468.013858  11967.568857 -20633.727044   -606.286570
PC33 -23684.229794  10539.247736 -10289.248556   -970.791174
PC34 -21537.005804  -8959.796072  15317.549273    416.814969
PC35  -4134.145135 -22573.450231 -15921.354787    381.956225
PC36  17444.526947 -16887.702027  13770.739202     57.940866
PC37   5720.523339  20562.696026  17998.773292   -961.787717
PC38 -23124.453925  34850.047334  -5809.302068    150.317214
PC39  -7240.507576  31897.239342 -26416.301089     -8.058806
PC40 -16687.359338  19394.114297  33449.966421    -66.462147
PC41  -7286.107784  15905.655721 -21677.873070   -929.697060
PC42 -26734.952392  -1510.688599   7832.395936   -442.881680
PC43 -14460.416902   7734.661328  22565.993729     68.779696
PC44 -16974.761646 -22117.189561  -1576.983675    450.060918
PC45   8491.342806 -26414.218779  -2885.097560    -81.265289
PC46  16528.851363   1799.356597  22402.245050   -141.732245
PC59      0.000000      0.000000      0.000000 999999.999999
PC60   7285.306240  41517.185274   -816.718488     -0.625764
PE02  24710.822439 -16278.188613    353.009988    121.160095
PE03  19737.884021  -6793.610891  20996.207284   -108.628492
PE04    192.628806  18202.620378 -23328.279841   -378.556743
PE05  27671.098056   8353.680585   6406.694270   4740.513481
PE07 -19176.089769 -18845.293189  12377.176641   -115.744680
PE08    662.353414 -17804.058862  23641.472906   -258.346618
PE09  19162.372776  18796.859696 -12488.269018   -414.774722
PE10   4059.392261  29172.342708  -2935.907721   -618.771353
PE11  10084.422826  24677.536745 -12855.078333   3005.269164
PE12  -2031.413397  28832.832893   6312.385919  -1003.618468
PE13  -9743.762659 -25097.899957  12319.061826    -21.132839
PE14  30013.713771  10255.593456  -5465.402471     12.769447
PE15   2332.687822 -28705.808336  -6865.000220    -98.321216
PE19 -21232.870819   5016.257439 -19988.720485   -204.929515
PE21 -24121.454884   2099.421756 -17032.832485   -590.364933
PE24   9066.335167  14216.531535  24309.125086   -719.206503
PE25  23945.925714  -1750.431198  17309.895742      3.582184
PE26 -16134.545640  -6197.046267  24032.612149    431.906025
PE27  -9419.308107 -13931.143945 -24362.010469   -329.706851
PE30  10838.144956 -21574.554062 -17131.413714   -220.325574
PE31 -10667.214642  21565.864897  17245.150507    -21.395241
PE33 -13063.180412  14896.320705  21990.037137     10.695425
PE34  12843.742884 -15451.182116 -21743.516945   -106.857363
PE36  15925.131842   6873.590179 -23983.714468   -216.290538
PG02 -14820.915014   3844.843310  22177.485022   -449.777176
PG03 -22957.688160  11892.664869   5639.092538    322.132664
PG04 -21518.008012   1485.132848 -15569.973190    343.591397
PG05  20018.419278   -532.818278 -17668.010688   -169.900260
PG06   5433.974977  25474.106292  -4810.246930    311.829919
PG07  -6425.521474  22217.970864 -12116.016639   -111.932842
PG08 -25353.609658  -5084.989346   6867.948167    134.450874
PG09 -10572.916003  11866.632088 -21366.028955    167.957282
PG10   2456.259664 -17865.859819  19591.656652    -11.482616
PG11  11881.809619  17770.997687 -15771.869212   -642.120932
PG12  23817.644133  -9456.815975   6582.507510   -498.462837
PG13  22740.235691  13952.154017    447.794228    644.426419
PG14  -6550.003728  19307.470411  16943.517598    381.541428
PG15  25690.213409   2292.875865   6261.952592    150.671594
PG16 -17774.922524  -5212.173749 -19534.060043   -311.513684
PG17   2691.570049  17223.846247  20413.023103    710.739635
PG18   6209.682315 -22787.076702 -11943.090605   -598.062085
PG19  12513.793940  18641.352465  14297.695842    471.149018
PG20  12507.719648   9059.151142 -21539.123654    379.413480
PG21 -15944.211466  -2914.124274  21638.309829    126.132200
PG22    870.618912  16652.000354  21156.632438     -2.540511
PG23  13793.410856 -19813.212636  10874.611404    206.101743
PG24  15578.523738  -1500.070423  21060.313663   -461.711189
PG25  20137.908994 -17000.604842  -2115.675493    494.206873
PG26  -7736.170894 -14135.155377 -21230.558691    163.843059
PG27 -22903.107629 -13316.391012  -4281.920195    -19.866885
PG28  -5038.407454 -25994.273461  -2124.702845   -211.749483
PG29  13640.980112  -8947.925207 -21034.772564   -601.200314
PG30    839.137098  26271.603815  -2454.026173   -402.142595
PG31 -10410.801071 -21029.676264 -12262.561314   -227.984210
PG32  -6904.115728 -17504.632624  19034.254730   -618.298027
PJ02 -30218.720631  28507.974695  12607.899759     -4.317302
PJ03 -26282.276538  24774.359731  26842.244776     -0.004475
PJ04 -32198.680721  20723.510722 -12511.194264     50.429565
PJ07 -25384.122842  33657.811701    -28.352382      0.029900
PR01  20861.220432   6523.537121 -13158.632150     83.095366
PR02  25182.109361   -526.741606   3873.010596    -22.774193
PR03  15343.323371  -8164.082820  18699.788080     98.670943
PR04  -2455.520488 -10799.265029  23013.857461    232.951938
PR05 -19046.911278  -7974.090739  15006.784860    130.296320
PR06 -24930.851116   2124.761926  -5001.023433   -159.945948
PR08   2792.079694  10853.044519 -22846.221666    -75.156798
PR09 -15552.188496   8617.332054 -18235.069282    182.178331
PR10 -15247.773226  19674.644326  -5765.328979   -152.500299
PR11  -6462.392732  21481.718810  12134.674452     27.298441
PR12   7245.644152   8992.796160  22768.038217     39.237970
PR13  14882.431534  -6210.229787  19748.345156    -46.571222
PR14  14659.376852 -20585.730387   3557.735106     26.406297
PR15   5542.088939 -20987.771249 -13385.460765     80.352594
PR16  -6969.640857  -9133.732005 -22769.443943     24.953376
PR17   4032.251683 -13433.109277 -21294.460217     79.860650
PR18  -6447.743208 -22700.659345  -9743.878988    138.216100
PR19 -12551.961165 -21596.514401   5168.573219   -273.820938
PR20 -12935.582646  -5321.047491  21346.029786   -111.617505
PR21  -4067.986204  13382.182618  21331.371859    -94.477218
PR22   6303.835806  23145.868051   8672.049735    115.308247
PR23  13908.527264  19617.176831  -8507.553590   -118.513909
PR24  13360.137619   3968.543458 -21355.058947    -52.678635
PR25  -4663.695965  13618.844854  21064.338206    -30.579407
PR26   1607.109013  10854.922735 -23002.436191    -23.832509
EOF
